start=new Date('2023-04-03T00:00:00.000Z').valueOf();
sats=[{"REV_AT_EPOCH":"1050","EPHEMERIS_TYPE":"0","OBJECT_ID":"2023-013AX","TLE_LINE2":"2 55376  43.0032   2.1162 0002594 260.6634  99.3940 15.71323660 10503","ECCENTRICITY":"0.00025940","TLE_LINE1":"1 55376U 23013AX  23092.86822355 -.00002111  00000-0 -12662-4 0  9998","BSTAR":"-0.00001266200000","ELEMENT_SET_NO":"999","DECAY_DATE":null,"OBJECT_TYPE":"PAYLOAD","LAUNCH_DATE":"2023-01-26","NORAD_CAT_ID":"55376","TIME_SYSTEM":"UTC","MEAN_ANOMALY":"99.3940","OBJECT_NAME":"STARLINK-5586","RCS_SIZE":"LARGE","PERIOD":"91.642","SEMIMAJOR_AXIS":"6733.250","MEAN_ELEMENT_THEORY":"SGP4","MEAN_MOTION":"15.71323660","MEAN_MOTION_DOT":"-0.00002111","MEAN_MOTION_DDOT":"0.0000000000000","SITE":"AFETR","INCLINATION":"43.0032","CENTER_NAME":"EARTH","REF_FRAME":"TEME","EPOCH":"2023-04-02T20:50:14.514720","APOAPSIS":"356.862","PERIAPSIS":"353.368","CLASSIFICATION_TYPE":"U","RA_OF_ASC_NODE":"2.1162","FILE":"3878419","ARG_OF_PERICENTER":"260.6634","COUNTRY_CODE":"US","GP_ID":"229354286"},{"RCS_SIZE":"LARGE","OBJECT_NAME":"STARLINK-5567","SEMIMAJOR_AXIS":"6937.180","PERIOD":"95.837","LAUNCH_DATE":"2023-01-26","MEAN_ANOMALY":"94.3667","NORAD_CAT_ID":"55377","TIME_SYSTEM":"UTC","ELEMENT_SET_NO":"999","BSTAR":"0.00029955000000","DECAY_DATE":null,"OBJECT_TYPE":"PAYLOAD","OBJECT_ID":"2023-013AY","EPHEMERIS_TYPE":"0","REV_AT_EPOCH":"1032","TLE_LINE1":"1 55377U 23013AY  23092.79342782  .00003846  00000-0  29955-3 0  9998","TLE_LINE2":"2 55377  43.0036  17.2525 0001689 265.6982  94.3667 15.02547905 10328","ECCENTRICITY":"0.00016890","ARG_OF_PERICENTER":"265.6982","FILE":"3878419","GP_ID":"229355538","COUNTRY_CODE":"US","PERIAPSIS":"557.873","APOAPSIS":"560.217","EPOCH":"2023-04-02T19:02:32.163648","CLASSIFICATION_TYPE":"U","RA_OF_ASC_NODE":"17.2525","INCLINATION":"43.0036","REF_FRAME":"TEME","CENTER_NAME":"EARTH","MEAN_MOTION":"15.02547905","MEAN_MOTION_DDOT":"0.0000000000000","MEAN_MOTION_DOT":"0.00003846","MEAN_ELEMENT_THEORY":"SGP4","SITE":"AFETR"},{"COUNTRY_CODE":"US","GP_ID":"229355266","FILE":"3878419","ARG_OF_PERICENTER":"259.9882","CLASSIFICATION_TYPE":"U","RA_OF_ASC_NODE":"16.8007","EPOCH":"2023-04-02T22:00:00.999936","APOAPSIS":"560.052","PERIAPSIS":"557.868","CENTER_NAME":"EARTH","REF_FRAME":"TEME","INCLINATION":"43.0030","SITE":"AFETR","MEAN_ELEMENT_THEORY":"SGP4","MEAN_MOTION":"15.02575578","MEAN_MOTION_DOT":"-0.00049932","MEAN_MOTION_DDOT":"0.0000000000000","SEMIMAJOR_AXIS":"6937.095","PERIOD":"95.835","RCS_SIZE":"LARGE","OBJECT_NAME":"STARLINK-5572","NORAD_CAT_ID":"55378","TIME_SYSTEM":"UTC","MEAN_ANOMALY":"317.2831","LAUNCH_DATE":"2023-01-26","DECAY_DATE":null,"OBJECT_TYPE":"PAYLOAD","BSTAR":"-0.00370360000000","ELEMENT_SET_NO":"999","TLE_LINE2":"2 55378  43.0030  16.8007 0001574 259.9882 317.2831 15.02575578  1306","ECCENTRICITY":"0.00015740","TLE_LINE1":"1 55378U 23013AZ  23092.91667824 -.00049932  00000-0 -37036-2 0  9996","REV_AT_EPOCH":"130","EPHEMERIS_TYPE":"0","OBJECT_ID":"2023-013AZ"},{"INCLINATION":"43.0040","REF_FRAME":"TEME","CENTER_NAME":"EARTH","MEAN_MOTION":"15.02517276","MEAN_MOTION_DOT":"-0.00004040","MEAN_MOTION_DDOT":"0.0000000000000","MEAN_ELEMENT_THEORY":"SGP4","SITE":"AFETR","ARG_OF_PERICENTER":"267.1195","FILE":"3878182","GP_ID":"229323900","COUNTRY_CODE":"US","PERIAPSIS":"558.287","APOAPSIS":"559.992","EPOCH":"2023-04-02T06:24:44.053920","CLASSIFICATION_TYPE":"U","RA_OF_ASC_NODE":"20.1843","ELEMENT_SET_NO":"999","BSTAR":"-0.00028429000000","OBJECT_TYPE":"PAYLOAD","DECAY_DATE":null,"OBJECT_ID":"2023-013BA","REV_AT_EPOCH":"1067","EPHEMERIS_TYPE":"0","TLE_LINE1":"1 55379U 23013BA  23092.26717655 -.00004040  00000-0 -28429-3 0  9991","TLE_LINE2":"2 55379  43.0040  20.1843 0001229 267.1195  92.9507 15.02517276 10677","ECCENTRICITY":"0.00012290","OBJECT_NAME":"STARLINK-5569","RCS_SIZE":"LARGE","PERIOD":"95.839","SEMIMAJOR_AXIS":"6937.274","LAUNCH_DATE":"2023-01-26","MEAN_ANOMALY":"92.9507","NORAD_CAT_ID":"55379","TIME_SYSTEM":"UTC"},{"OBJECT_ID":"2023-013BB","EPHEMERIS_TYPE":"0","REV_AT_EPOCH":"1050","TLE_LINE1":"1 55380U 23013BB  23092.86790430 -.00048242  00000-0 -36811-3 0  9997","TLE_LINE2":"2 55380  43.0013   2.1150 0002571 287.2006  72.8580 15.71251950 10505","ECCENTRICITY":"0.00025710","ELEMENT_SET_NO":"999","BSTAR":"-0.00036811000000","DECAY_DATE":null,"OBJECT_TYPE":"PAYLOAD","LAUNCH_DATE":"2023-01-26","MEAN_ANOMALY":"72.8580","NORAD_CAT_ID":"55380","TIME_SYSTEM":"UTC","OBJECT_NAME":"STARLINK-5571","RCS_SIZE":"LARGE","SEMIMAJOR_AXIS":"6733.455","PERIOD":"91.647","MEAN_MOTION":"15.71251950","MEAN_MOTION_DOT":"-0.00048242","MEAN_MOTION_DDOT":"0.0000000000000","MEAN_ELEMENT_THEORY":"SGP4","SITE":"AFETR","INCLINATION":"43.0013","REF_FRAME":"TEME","CENTER_NAME":"EARTH","PERIAPSIS":"353.589","EPOCH":"2023-04-02T20:49:46.931520","APOAPSIS":"357.051","CLASSIFICATION_TYPE":"U","RA_OF_ASC_NODE":"2.1150","ARG_OF_PERICENTER":"287.2006","FILE":"3878419","GP_ID":"229354787","COUNTRY_CODE":"US"},{"LAUNCH_DATE":"2023-01-26","MEAN_ANOMALY":"97.6495","NORAD_CAT_ID":"55381","TIME_SYSTEM":"UTC","RCS_SIZE":"LARGE","OBJECT_NAME":"STARLINK-5575","SEMIMAJOR_AXIS":"6937.162","PERIOD":"95.837","OBJECT_ID":"2023-013BC","EPHEMERIS_TYPE":"0","REV_AT_EPOCH":"1032","TLE_LINE1":"1 55381U 23013BC  23092.79677069  .00027161  00000-0  20170-2 0  9997","TLE_LINE2":"2 55381  43.0029  17.2791 0001353 262.4193  97.6495 15.02553740 10326","ECCENTRICITY":"0.00013530","ELEMENT_SET_NO":"999","BSTAR":"0.00201700000000","OBJECT_TYPE":"PAYLOAD","DECAY_DATE":null,"PERIAPSIS":"558.088","APOAPSIS":"559.966","EPOCH":"2023-04-02T19:07:20.987616","CLASSIFICATION_TYPE":"U","RA_OF_ASC_NODE":"17.2791","ARG_OF_PERICENTER":"262.4193","FILE":"3878419","GP_ID":"229355038","COUNTRY_CODE":"US","MEAN_MOTION":"15.02553740","MEAN_MOTION_DOT":"0.00027161","MEAN_MOTION_DDOT":"0.0000000000000","MEAN_ELEMENT_THEORY":"SGP4","SITE":"AFETR","INCLINATION":"43.0029","REF_FRAME":"TEME","CENTER_NAME":"EARTH"},{"CENTER_NAME":"EARTH","REF_FRAME":"TEME","INCLINATION":"43.0029","SITE":"AFETR","MEAN_ELEMENT_THEORY":"SGP4","MEAN_MOTION_DDOT":"0.0000000000000","MEAN_MOTION_DOT":"-0.00030475","MEAN_MOTION":"15.02556822","COUNTRY_CODE":"US","GP_ID":"229355767","FILE":"3878419","ARG_OF_PERICENTER":"269.2457","RA_OF_ASC_NODE":"16.7287","CLASSIFICATION_TYPE":"U","EPOCH":"2023-04-02T22:00:00.999936","APOAPSIS":"560.181","PERIAPSIS":"557.853","DECAY_DATE":null,"OBJECT_TYPE":"PAYLOAD","BSTAR":"-0.00224940000000","ELEMENT_SET_NO":"999","ECCENTRICITY":"0.00016780","TLE_LINE2":"2 55382  43.0029  16.7287 0001678 269.2457 338.0740 15.02556822  1306","TLE_LINE1":"1 55382U 23013BD  23092.91667824 -.00030475  00000-0 -22494-2 0  9995","REV_AT_EPOCH":"130","EPHEMERIS_TYPE":"0","OBJECT_ID":"2023-013BD","PERIOD":"95.837","SEMIMAJOR_AXIS":"6937.152","RCS_SIZE":"LARGE","OBJECT_NAME":"STARLINK-5576","TIME_SYSTEM":"UTC","NORAD_CAT_ID":"55382","MEAN_ANOMALY":"338.0740","LAUNCH_DATE":"2023-01-26"},{"LAUNCH_DATE":"2023-01-26","MEAN_ANOMALY":"87.7873","NORAD_CAT_ID":"55383","TIME_SYSTEM":"UTC","RCS_SIZE":"LARGE","OBJECT_NAME":"STARLINK-5531","SEMIMAJOR_AXIS":"6733.687","PERIOD":"91.651","OBJECT_ID":"2023-013BE","REV_AT_EPOCH":"1050","EPHEMERIS_TYPE":"0","TLE_LINE1":"1 55383U 23013BE  23092.86753013 -.00054053  00000-0 -41464-3 0  9993","TLE_LINE2":"2 55383  43.0014   2.1088 0001791 272.2790  87.7873 15.71170546 10507","ECCENTRICITY":"0.00017910","ELEMENT_SET_NO":"999","BSTAR":"-0.00041464000000","OBJECT_TYPE":"PAYLOAD","DECAY_DATE":null,"PERIAPSIS":"354.346","APOAPSIS":"356.758","EPOCH":"2023-04-02T20:49:14.603232","CLASSIFICATION_TYPE":"U","RA_OF_ASC_NODE":"2.1088","ARG_OF_PERICENTER":"272.2790","FILE":"3878419","GP_ID":"229354037","COUNTRY_CODE":"US","MEAN_MOTION":"15.71170546","MEAN_MOTION_DDOT":"0.0000000000000","MEAN_MOTION_DOT":"-0.00054053","MEAN_ELEMENT_THEORY":"SGP4","SITE":"AFETR","INCLINATION":"43.0014","REF_FRAME":"TEME","CENTER_NAME":"EARTH"},{"REV_AT_EPOCH":"1024","EPHEMERIS_TYPE":"0","OBJECT_ID":"2023-013BF","TLE_LINE2":"2 55384  43.0025  20.2033 0001687 278.8105  81.2546 15.02563716 10243","ECCENTRICITY":"0.00016870","TLE_LINE1":"1 55384U 23013BF  23092.26937331  .00006841  00000-0  52065-3 0  9994","BSTAR":"0.00052065000000","ELEMENT_SET_NO":"999","DECAY_DATE":null,"OBJECT_TYPE":"PAYLOAD","LAUNCH_DATE":"2023-01-26","NORAD_CAT_ID":"55384","TIME_SYSTEM":"UTC","MEAN_ANOMALY":"81.2546","RCS_SIZE":"LARGE","OBJECT_NAME":"STARLINK-5537","PERIOD":"95.836","SEMIMAJOR_AXIS":"6937.131","MEAN_ELEMENT_THEORY":"SGP4","MEAN_MOTION":"15.02563716","MEAN_MOTION_DOT":"0.00006841","MEAN_MOTION_DDOT":"0.0000000000000","SITE":"AFETR","INCLINATION":"43.0025","CENTER_NAME":"EARTH","REF_FRAME":"TEME","EPOCH":"2023-04-02T06:27:53.853984","APOAPSIS":"560.167","PERIAPSIS":"557.826","CLASSIFICATION_TYPE":"U","RA_OF_ASC_NODE":"20.2033","FILE":"3878126","ARG_OF_PERICENTER":"278.8105","COUNTRY_CODE":"US","GP_ID":"229320801"},{"MEAN_ELEMENT_THEORY":"SGP4","MEAN_MOTION_DDOT":"0.0000000000000","MEAN_MOTION_DOT":"0.00009280","MEAN_MOTION":"15.02536647","SITE":"AFETR","INCLINATION":"43.0024","CENTER_NAME":"EARTH","REF_FRAME":"TEME","APOAPSIS":"560.154","EPOCH":"2023-04-02T20:30:17.810784","PERIAPSIS":"558.005","RA_OF_ASC_NODE":"16.8492","CLASSIFICATION_TYPE":"U","FILE":"3878174","ARG_OF_PERICENTER":"275.6547","COUNTRY_CODE":"US","GP_ID":"229323642","REV_AT_EPOCH":"1076","EPHEMERIS_TYPE":"0","OBJECT_ID":"2023-013BG","ECCENTRICITY":"0.00015490","TLE_LINE2":"2 55385  43.0024  16.8492 0001549 275.6547  84.4119 15.02536647 10766","TLE_LINE1":"1 55385U 23013BG  23092.85437281  .00009280  00000-0  70109-3 0  9998","BSTAR":"0.00070109000000","ELEMENT_SET_NO":"999","DECAY_DATE":null,"OBJECT_TYPE":"PAYLOAD","LAUNCH_DATE":"2023-01-26","TIME_SYSTEM":"UTC","NORAD_CAT_ID":"55385","MEAN_ANOMALY":"84.4119","OBJECT_NAME":"STARLINK-5556","RCS_SIZE":"LARGE","PERIOD":"95.838","SEMIMAJOR_AXIS":"6937.215"}];
